{"type": "FeatureCollection", "features": [ {"type": "Feature", "properties": {"norad_id": 31010, "name": "FENGYUN 1C DEB", "group": "fengyun-1c-debris", "lat": 29.728676669211428, "lon": -23.78689365000701, "alt_km": 884.7339598655635, "timestamp": "2025-12-24T11:33:00.296846+00:00", "meta": {"OBJECT_NAME": "FENGYUN 1C DEB", "OBJECT_ID": "1999-025BDC", "EPOCH": "2025-12-21T15:29:23.505216", "MEAN_MOTION": 14.25926133, "ECCENTRICITY": 0.01135325, "INCLINATION": 101.7249, "RA_OF_ASC_NODE": 145.6193, "ARG_OF_PERICENTER": 331.1393, "MEAN_ANOMALY": 28.3526, "EPHEMERIS_TYPE": 0, "CLASSIFICATION_TYPE": "U", "NORAD_CAT_ID": 31010, "ELEMENT_SET_NO": 999, "REV_AT_EPOCH": 95756, "BSTAR": 0.0025083825, "MEAN_MOTION_DOT": 6.333e-05, "MEAN_MOTION_DDOT": 0}, "tle": {"line1": "1 31010U 99025BDC 25355.64541094  .00006333  00000+0  25084-2 0  9998", "line2": "2 31010 101.7249 145.6193 0113532 331.1393  28.3526 14.25926133957562"}}, "geometry": {"type": "Point", "coordinates": [-23.78689365000701, 29.728676669211428]}}, {"type": "Feature", "properties": {"norad_id": 31012, "name": "FENGYUN 1C DEB", "group": "fengyun-1c-debris", "lat": -26.14303429029201, "lon": -98.76576333569281, "alt_km": 830.3347292318649, "timestamp": "2025-12-24T11:33:00.296856+00:00", "meta": {"OBJECT_NAME": "FENGYUN 1C DEB", "OBJECT_ID": "1999-025BDE", "EPOCH": "2025-12-23T12:43:05.152800", "MEAN_MOTION": 14.2787236, "ECCENTRICITY": 0.00815586, "INCLINATION": 98.9115, "RA_OF_ASC_NODE": 255.8472, "ARG_OF_PERICENTER": 219.744, "MEAN_ANOMALY": 265.6252, "EPHEMERIS_TYPE": 0, "CLASSIFICATION_TYPE": "U", "NORAD_CAT_ID": 31012, "ELEMENT_SET_NO": 999, "REV_AT_EPOCH": 97901, "BSTAR": 0.00015771104, "MEAN_MOTION_DOT": 3.58e-06, "MEAN_MOTION_DDOT": 0}, "tle": {"line1": "1 31012U 99025BDE 25357.52992075  .00000358  00000+0  15771-3 0  9992", "line2": "2 31012  98.9115 255.8472 0081558 219.7440 265.6252 14.27872360979013"}}, "geometry": {"type": "Point", "coordinates": [-98.76576333569281, -26.14303429029201]}}, {"type": "Feature", "properties": {"norad_id": 31014, "name": "FENGYUN 1C DEB", "group": "fengyun-1c-debris", "lat": 66.59595412136568, "lon": -47.44254270134408, "alt_km": 895.061677559589, "timestamp": "2025-12-24T11:33:00.296866+00:00", "meta": {"OBJECT_NAME": "FENGYUN 1C DEB", "OBJECT_ID": "1999-025BDG", "EPOCH": "2025-12-23T10:11:18.522816", "MEAN_MOTION": 13.98493198, "ECCENTRICITY": 0.00884259, "INCLINATION": 98.8695, "RA_OF_ASC_NODE": 332.6828, "ARG_OF_PERICENTER": 164.0148, "MEAN_ANOMALY": 348.0123, "EPHEMERIS_TYPE": 0, "CLASSIFICATION_TYPE": "U", "NORAD_CAT_ID": 31014, "ELEMENT_SET_NO": 999, "REV_AT_EPOCH": 95985, "BSTAR": -9.2094959e-05, "MEAN_MOTION_DOT": -1.78e-06, "MEAN_MOTION_DDOT": 0}, "tle": {"line1": "1 31014U 99025BDG 25357.42451994 -.00000178  00000+0 -92095-4 0  9990", "line2": "2 31014  98.8695 332.6828 0088425 164.0148 348.0123 13.98493198959851"}}, "geometry": {"type": "Point", "coordinates": [-47.44254270134408, 66.59595412136568]}}, {"type": "Feature", "properties": {"norad_id": 31016, "name": "FENGYUN 1C DEB", "group": "fengyun-1c-debris", "lat": 81.00907563498426, "lon": -96.3356986555543, "alt_km": 848.9835661148163, "timestamp": "2025-12-24T11:33:00.296876+00:00", "meta": {"OBJECT_NAME": "FENGYUN 1C DEB", "OBJECT_ID": "1999-025BDJ", "EPOCH": "2025-12-23T23:38:38.001984", "MEAN_MOTION": 14.30511594, "ECCENTRICITY": 0.0112136, "INCLINATION": 98.4358, "RA_OF_ASC_NODE": 13.4764, "ARG_OF_PERICENTER": 240.6193, "MEAN_ANOMALY": 179.8775, "EPHEMERIS_TYPE": 0, "CLASSIFICATION_TYPE": "U", "NORAD_CAT_ID": 31016, "ELEMENT_SET_NO": 999, "REV_AT_EPOCH": 97631, "BSTAR": 0.0002533, "MEAN_MOTION_DOT": 6.63e-06, "MEAN_MOTION_DDOT": 0}, "tle": {"line1": "1 31016U 99025BDJ 25357.98516206  .00000663  00000+0  25330-3 0  9995", "line2": "2 31016  98.4358  13.4764 0112136 240.6193 179.8775 14.30511594976317"}}, "geometry": {"type": "Point", "coordinates": [-96.3356986555543, 81.00907563498426]}}, {"type": "Feature", "properties": {"norad_id": 31017, "name": "FENGYUN 1C DEB", "group": "fengyun-1c-debris", "lat": -55.963350797709516, "lon": 151.10646690899668, "alt_km": 855.331156211817, "timestamp": "2025-12-24T11:33:00.296887+00:00", "meta": {"OBJECT_NAME": "FENGYUN 1C DEB", "OBJECT_ID": "1999-025BDK", "EPOCH": "2025-12-23T05:32:16.967616", "MEAN_MOTION": 14.08838711, "ECCENTRICITY": 0.01126729, "INCLINATION": 98.6802, "RA_OF_ASC_NODE": 342.9738, "ARG_OF_PERICENTER": 320.4521, "MEAN_ANOMALY": 58.9275, "EPHEMERIS_TYPE": 0, "CLASSIFICATION_TYPE": "U", "NORAD_CAT_ID": 31017, "ELEMENT_SET_NO": 999, "REV_AT_EPOCH": 96444, "BSTAR": 0.00036504458, "MEAN_MOTION_DOT": 6.25e-06, "MEAN_MOTION_DDOT": 0}, "tle": {"line1": "1 31017U 99025BDK 25357.23075194  .00000625  00000+0  36504-3 0  9993", "line2": "2 31017  98.6802 342.9738 0112672 320.4521  58.9275 14.08838711964443"}}, "geometry": {"type": "Point", "coordinates": [151.10646690899668, -55.963350797709516]}}, {"type": "Feature", "properties": {"norad_id": 31018, "name": "FENGYUN 1C DEB", "group": "fengyun-1c-debris", "lat": 79.26502137720918, "lon": 28.46480846270248, "alt_km": 786.5316498804677, "timestamp": "2025-12-24T11:33:00.296897+00:00", "meta": {"OBJECT_NAME": "FENGYUN 1C DEB", "OBJECT_ID": "1999-025BDL", "EPOCH": "2025-12-23T11:25:53.699808", "MEAN_MOTION": 14.16987914, "ECCENTRICITY": 0.00583651, "INCLINATION": 99.0245, "RA_OF_ASC_NODE": 84.4038, "ARG_OF_PERICENTER": 95.8947, "MEAN_ANOMALY": 264.8883, "EPHEMERIS_TYPE": 0, "CLASSIFICATION_TYPE": "U", "NORAD_CAT_ID": 31018, "ELEMENT_SET_NO": 999, "REV_AT_EPOCH": 96207, "BSTAR": 0.0015318638, "MEAN_MOTION_DOT": 3.085e-05, "MEAN_MOTION_DDOT": 0}, "tle": {"line1": "1 31018U 99025BDL 25357.47631597  .00003085  00000+0  15319-2 0  9998", "line2": "2 31018  99.0245  84.4038 0058365  95.8947 264.8883 14.16987914962073"}}, "geometry": {"type": "Point", "coordinates": [28.46480846270248, 79.26502137720918]}}, {"type": "Feature", "properties": {"norad_id": 31019, "name": "FENGYUN 1C DEB", "group": "fengyun-1c-debris", "lat": -54.327705184884564, "lon": -155.25726878569816, "alt_km": 1064.223255419568, "timestamp": "2025-12-24T11:33:00.296908+00:00", "meta": {"OBJECT_NAME": "FENGYUN 1C DEB", "OBJECT_ID": "1999-025BDM", "EPOCH": "2025-12-21T19:04:30.482400", "MEAN_MOTION": 11.82992381, "ECCENTRICITY": 0.11182228, "INCLINATION": 98.7026, "RA_OF_ASC_NODE": 190.6549, "ARG_OF_PERICENTER": 266.0498, "MEAN_ANOMALY": 114.5316, "EPHEMERIS_TYPE": 0, "CLASSIFICATION_TYPE": "U", "NORAD_CAT_ID": 31019, "ELEMENT_SET_NO": 999, "REV_AT_EPOCH": 55288, "BSTAR": 0.0023777333, "MEAN_MOTION_DOT": 8.64e-06, "MEAN_MOTION_DDOT": 0}, "tle": {"line1": "1 31019U 99025BDM 25355.79479725  .00000864  00000+0  23777-2 0  9994", "line2": "2 31019  98.7026 190.6549 1118222 266.0498 114.5316 11.82992381552887"}}, "geometry": {"type": "Point", "coordinates": [-155.25726878569816, -54.327705184884564]}}, {"type": "Feature", "properties": {"norad_id": 31021, "name": "FENGYUN 1C DEB", "group": "fengyun-1c-debris", "lat": 5.364074511979426, "lon": -69.86003271775702, "alt_km": 481.58805951653176, "timestamp": "2025-12-24T11:33:00.296918+00:00", "meta": {"OBJECT_NAME": "FENGYUN 1C DEB", "OBJECT_ID": "1999-025BDP", "EPOCH": "2025-12-24T00:58:59.697408", "MEAN_MOTION": 14.75429487, "ECCENTRICITY": 0.0268085, "INCLINATION": 98.349, "RA_OF_ASC_NODE": 108.895, "ARG_OF_PERICENTER": 205.75, "MEAN_ANOMALY": 153.0159, "EPHEMERIS_TYPE": 0, "CLASSIFICATION_TYPE": "U", "NORAD_CAT_ID": 31021, "ELEMENT_SET_NO": 999, "REV_AT_EPOCH": 73599, "BSTAR": 0.00076352, "MEAN_MOTION_DOT": 9.305e-05, "MEAN_MOTION_DDOT": 0}, "tle": {"line1": "1 31021U 99025BDP 25358.04096872  .00009305  00000+0  76352-3 0  9993", "line2": "2 31021  98.3490 108.8950 0268085 205.7500 153.0159 14.75429487735999"}}, "geometry": {"type": "Point", "coordinates": [-69.86003271775702, 5.364074511979426]}}, {"type": "Feature", "properties": {"norad_id": 31022, "name": "FENGYUN 1C DEB", "group": "fengyun-1c-debris", "lat": 79.19486224890602, "lon": -179.09386342195828, "alt_km": 839.3696977737409, "timestamp": "2025-12-24T11:33:00.296928+00:00", "meta": {"OBJECT_NAME": "FENGYUN 1C DEB", "OBJECT_ID": "1999-025BDQ", "EPOCH": "2025-12-23T23:03:36.550080", "MEAN_MOTION": 13.90460502, "ECCENTRICITY": 0.0110336, "INCLINATION": 99.5163, "RA_OF_ASC_NODE": 241.8824, "ARG_OF_PERICENTER": 91.8783, "MEAN_ANOMALY": 269.5015, "EPHEMERIS_TYPE": 0, "CLASSIFICATION_TYPE": "U", "NORAD_CAT_ID": 31022, "ELEMENT_SET_NO": 999, "REV_AT_EPOCH": 62164, "BSTAR": 0.00047398, "MEAN_MOTION_DOT": 5.73e-06, "MEAN_MOTION_DDOT": 0}, "tle": {"line1": "1 31022U 99025BDQ 25357.96083970  .00000573  00000+0  47398-3 0  9995", "line2": "2 31022  99.5163 241.8824 0110336  91.8783 269.5015 13.90460502621649"}}, "geometry": {"type": "Point", "coordinates": [-179.09386342195828, 79.19486224890602]}}, {"type": "Feature", "properties": {"norad_id": 31023, "name": "FENGYUN 1C DEB", "group": "fengyun-1c-debris", "lat": 39.16895729479687, "lon": 170.89680996304412, "alt_km": 827.5319599048462, "timestamp": "2025-12-24T11:33:00.296998+00:00", "meta": {"OBJECT_NAME": "FENGYUN 1C DEB", "OBJECT_ID": "1999-025BDR", "EPOCH": "2025-12-20T19:49:13.315584", "MEAN_MOTION": 14.06693358, "ECCENTRICITY": 0.00824044, "INCLINATION": 98.8149, "RA_OF_ASC_NODE": 340.0727, "ARG_OF_PERICENTER": 198.6079, "MEAN_ANOMALY": 161.2072, "EPHEMERIS_TYPE": 0, "CLASSIFICATION_TYPE": "U", "NORAD_CAT_ID": 31023, "ELEMENT_SET_NO": 999, "REV_AT_EPOCH": 69615, "BSTAR": 0.00023624773, "MEAN_MOTION_DOT": 3.61e-06, "MEAN_MOTION_DDOT": 0}, "tle": {"line1": "1 31023U 99025BDR 25354.82584856  .00000361  00000+0  23625-3 0  9999", "line2": "2 31023  98.8149 340.0727 0082404 198.6079 161.2072 14.06693358696152"}}, "geometry": {"type": "Point", "coordinates": [170.89680996304412, 39.16895729479687]}}]}